[{"OBJECT_NAME":"STARLINK-5861","OBJECT_ID":"2023-037H","EPOCH":"2026-03-09T22:11:41.498304","MEAN_MOTION":14.98330597,"ECCENTRICITY":0.00018361,"INCLINATION":69.9989,"RA_OF_ASC_NODE":303.8136,"ARG_OF_PERICENTER":272.3299,"MEAN_ANOMALY":87.765,"EPHEMERIS_TYPE":0,"CLASSIFICATION_TYPE":"U","NORAD_CAT_ID":55921,"ELEMENT_SET_NO":999,"REV_AT_EPOCH":16352,"BSTAR":-1.3230461e-5,"MEAN_MOTION_DOT":-2.51e-6,"MEAN_MOTION_DDOT":0},{"OBJECT_NAME":"THOR ABLE DEB [YO]","OBJECT_ID":"1960-002D","EPOCH":"2026-03-09T10:49:33.639456","MEAN_MOTION":14.97533438,"ECCENTRICITY":0.00268025,"INCLINATION":48.1611,"RA_OF_ASC_NODE":231.3365,"ARG_OF_PERICENTER":170.582,"MEAN_ANOMALY":189.5606,"EPHEMERIS_TYPE":0,"CLASSIFICATION_TYPE":"U","NORAD_CAT_ID":115,"ELEMENT_SET_NO":999,"REV_AT_EPOCH":50318,"BSTAR":0.00053607823,"MEAN_MOTION_DOT":6.13e-5,"MEAN_MOTION_DDOT":0}]
